#aV2024 10 31  0  0  0.00000000     288 DD+AD WGS84 FIT  NGA
## 2338 345600.00000000   300.00000000 60614 0.0000000000000
+   31     2  3  4  5  6  7  8  9 10 11 12 13 14 15 16 17 18
+         19 20 21 22 23 24 25 26 27 28 29 30 31 32  0  0  0
+          0  0  0  0  0  0  0  0  0  0  0  0  0  0  0  0  0
+          0  0  0  0  0  0  0  0  0  0  0  0  0  0  0  0  0
+          0  0  0  0  0  0  0  0  0  0  0  0  0  0  0  0  0
++         2  2  2  2  2  2  2  2  2  2  2  2  2  2  2  2  2
++         2  2  2  2  2  2  2  2  2  2  2  2  2  2  0  0  0
++         0  0  0  0  0  0  0  0  0  0  0  0  0  0  0  0  0
++         0  0  0  0  0  0  0  0  0  0  0  0  0  0  0  0  0
++         0  0  0  0  0  0  0  0  0  0  0  0  0  0  0  0  0
%c cc cc ccc ccc cccc cccc cccc cccc ccccc ccccc ccccc ccccc
%c cc cc ccc ccc cccc cccc cccc cccc ccccc ccccc ccccc ccccc
%f  0.0000000  0.000000000  0.00000000000  0.000000000000000
%f  0.0000000  0.000000000  0.00000000000  0.000000000000000
%i    0    0    0    0      0      0      0      0         0
%i    0    0    0    0      0      0      0      0         0
/*      NGA, ST. LOUIS,MO.                                  
/*   EPHEMERIS COMPUTED FROM 2 DAYS OF DATA                 
/*   EPOCHA v9 SMOOTHER                                     
/*   G2296 IERS2010 SATIGS SATAPC                           
*  2024 10 31  7 35  0.00000000
P  2  19720.524441  13492.865376 -11488.677538   -325.199962                    
V  2 -15212.269661  -1892.475182 -26881.498319      0.084124                    
P  3  12329.832862  19289.105889  13393.543010    586.457173                    
V  3   1411.319592  17208.260929 -25659.242098      0.110755                    
P  4  13290.789002   8416.012238  21433.343843    471.260329                    
V  4 -21068.214660  17124.568239   6198.244229      0.066236                    
P  5  -5182.188156 -25982.328799   1107.068458   -191.513192                    
V  5   2763.611155   1031.776544  32044.529013     -0.012028                    
P  6  15609.396742  -8120.599312  20003.213077    -78.530791                    
V  6  23219.423401   9650.021264 -14144.498941     -0.284377                    
P  7  25661.425629   6612.701071  -3494.565113    -23.317501                    
V  7   3792.002118   4326.893066  30821.202490      0.027575                    
P  8   3177.403460  16768.889877 -20358.245737    400.298225                    
V  8 -19891.317042  16385.973120  10890.228143      0.108706                    
P  9  19912.488198  -1315.296418  17463.524939    422.488225                    
V  9 -15576.722672  16106.617107  18807.853137      0.167953                    
P 10 -11263.747540  12697.756330 -20111.196653   -178.057419                    
V 10  -5530.456189 -25489.641799 -13183.591506     -0.139405                    
P 11    836.419255 -15698.841243  21451.084419   -747.620650                    
V 11  25244.637435   9943.203834   6241.173527     -0.022621                    
P 12  -9462.149054 -22624.752944   9970.063175   -548.869609                    
V 12   1083.690818 -13253.730921 -28202.186241     -0.025866                    
P 13   6770.742655 -18584.145328 -17842.808785    683.956838                    
V 13  19684.038636 -10498.957099  18879.042805      0.017102                    
P 14  13885.815696  -8639.407222 -20843.734724    529.482840                    
V 14   5039.528036  26207.374942  -7715.727580      0.083127                    
P 15  -5720.280723 -16474.018850 -20520.854968    222.127294                    
V 15  17228.640951 -18191.323738  10214.942617      0.044978                    
P 16  -1062.812714  25775.465968   4870.706457   -140.728817                    
V 16  -3759.020982  -6383.537317  31240.360133      0.098832                    
P 17  22578.509068 -13513.485646  -3862.274725    576.387132                    
V 17  -2830.804042   5229.655285 -31254.172409     -0.137727                    
P 18 -25424.657900  -5314.210631  -6075.122960   -659.514935                    
V 18  -6426.180827  -4722.751178  30663.870517     -0.008538                    
P 19  19196.590651 -17259.889108   5046.402671    557.095495                    
V 19   7189.851195  -1281.147948 -31262.447224      0.045726                    
P 20    838.323153 -23425.185450  12705.211700    369.169198                    
V 20   7713.944249  14163.878951  25615.477316     -0.003445                    
P 21  15021.400628  15358.952704 -15884.238908     98.564713                    
V 21 -20172.798283  -3818.330803 -21162.511737     -0.008535                    
P 22  10452.374642 -17235.687605 -17050.857561    -75.629704                    
V 22   3620.887829  22083.230852 -19345.319529     -0.031110                    
P 23 -15241.465227  -2367.956984 -21618.329208    353.215013                    
V 23  -5233.046815 -26933.755981   6408.004102      0.080525                    
P 24 -17587.491101 -15012.496049 -13875.906848   -482.673858                    
V 24  16852.581984   1775.238313 -23675.855616      0.017205                    
P 25 -15520.054595 -11077.162904  18250.271841    499.295421                    
V 25  -3086.376881 -23682.535619 -16423.177868     -0.001905                    
P 26  -6658.042379  20095.957915  15635.119340     41.996601                    
V 26  -8028.965367 -18970.473345  21123.667844     -0.098827                    
P 27  -7901.300420  20532.297726 -14861.857156    -34.734271                    
V 27 -15547.742678  10345.960509  23440.755152     -0.000442                    
P 28 -17390.436535   7875.877243  18454.108057   -463.812856                    
V 28 -21840.732457  -8688.722319 -16855.804410     -0.123086                    
P 29 -19269.731664  -1534.805901  18229.224499   -567.361855                    
V 29  17980.252872 -14666.596245  17609.283527      0.028129                    
P 30  22826.545330  -2339.501144 -13454.716991   -291.601238                    
V 30  15367.794943   8350.190979  24084.586837      0.076110                    
P 31  -6627.726615  13766.116292  21494.454401   -222.551903                    
V 31 -26015.609766 -10023.749195  -1217.992272      0.006040                    
P 32 -20918.873083  16002.783562  -2200.854918   -580.076637                    
V 32    410.552198  -4233.446324 -31767.361397      0.048773                    
EOF
